{"type": "FeatureCollection", "features": [ {"type": "Feature", "properties": {"norad_id": 40701, "name": "GAOFEN-8", "group": "resource", "lat": -14.816071963732035, "lon": -6.185939387234916, "alt_km": 454.5366213892994, "timestamp": "2025-12-23T05:02:11.680796+00:00", "meta": {"OBJECT_NAME": "GAOFEN-8", "OBJECT_ID": "2015-030A", "EPOCH": "2025-12-22T09:28:00.859296", "MEAN_MOTION": 15.38873493, "ECCENTRICITY": 0.00117643, "INCLINATION": 97.6904, "RA_OF_ASC_NODE": 175.0072, "ARG_OF_PERICENTER": 104.66, "MEAN_ANOMALY": 255.595, "EPHEMERIS_TYPE": 0, "CLASSIFICATION_TYPE": "U", "NORAD_CAT_ID": 40701, "ELEMENT_SET_NO": 999, "REV_AT_EPOCH": 58419, "BSTAR": 0.00072175287, "MEAN_MOTION_DOT": 0.00027798, "MEAN_MOTION_DDOT": 0}, "tle": {"line1": "1 40701U 15030A   25356.39445439  .00027798  00000+0  72175-3 0  9990", "line2": "2 40701  97.6904 175.0072 0011764 104.6600 255.5950 15.38873493584196"}}, "geometry": {"type": "Point", "coordinates": [-6.185939387234916, -14.816071963732035]}}, {"type": "Feature", "properties": {"norad_id": 40718, "name": "CARBONITE 1 (CBNT-1)", "group": "resource", "lat": -0.34508779085065966, "lon": -2.253238598118118, "alt_km": 614.6618899659134, "timestamp": "2025-12-23T05:02:11.680806+00:00", "meta": {"OBJECT_NAME": "CARBONITE 1 (CBNT-1)", "OBJECT_ID": "2015-032D", "EPOCH": "2025-12-22T23:22:06.454848", "MEAN_MOTION": 14.82790671, "ECCENTRICITY": 0.00151386, "INCLINATION": 97.6397, "RA_OF_ASC_NODE": 177.5674, "ARG_OF_PERICENTER": 148.4746, "MEAN_ANOMALY": 211.7379, "EPHEMERIS_TYPE": 0, "CLASSIFICATION_TYPE": "U", "NORAD_CAT_ID": 40718, "ELEMENT_SET_NO": 999, "REV_AT_EPOCH": 56322, "BSTAR": 0.00048913343, "MEAN_MOTION_DOT": 3.913e-05, "MEAN_MOTION_DDOT": 0}, "tle": {"line1": "1 40718U 15032D   25356.97368582  .00003913  00000+0  48913-3 0  9993", "line2": "2 40718  97.6397 177.5674 0015138 148.4746 211.7379 14.82790671563225"}}, "geometry": {"type": "Point", "coordinates": [-2.253238598118118, -0.34508779085065966]}}, {"type": "Feature", "properties": {"norad_id": 40878, "name": "YAOGAN-27", "group": "resource", "lat": 78.71513434752205, "lon": -76.93003282414105, "alt_km": 1198.1253196451853, "timestamp": "2025-12-23T05:02:11.680817+00:00", "meta": {"OBJECT_NAME": "YAOGAN-27", "OBJECT_ID": "2015-040A", "EPOCH": "2025-12-22T23:07:57.148032", "MEAN_MOTION": 13.16060217, "ECCENTRICITY": 0.00075707, "INCLINATION": 100.1009, "RA_OF_ASC_NODE": 346.1211, "ARG_OF_PERICENTER": 261.2016, "MEAN_ANOMALY": 98.8241, "EPHEMERIS_TYPE": 0, "CLASSIFICATION_TYPE": "U", "NORAD_CAT_ID": 40878, "ELEMENT_SET_NO": 999, "REV_AT_EPOCH": 49448, "BSTAR": 8.8218967e-05, "MEAN_MOTION_DOT": -9e-08, "MEAN_MOTION_DDOT": 0}, "tle": {"line1": "1 40878U 15040A   25356.96385588 -.00000009  00000+0  88219-4 0  9991", "line2": "2 40878 100.1009 346.1211 0007570 261.2016  98.8241 13.16060217494483"}}, "geometry": {"type": "Point", "coordinates": [-76.93003282414105, 78.71513434752205]}}, {"type": "Feature", "properties": {"norad_id": 40894, "name": "GAOFEN-9 01", "group": "resource", "lat": 82.23723352123228, "lon": -44.80672462818405, "alt_km": 613.4932470406729, "timestamp": "2025-12-23T05:02:11.680827+00:00", "meta": {"OBJECT_NAME": "GAOFEN-9 01", "OBJECT_ID": "2015-047A", "EPOCH": "2025-12-22T23:46:46.174944", "MEAN_MOTION": 14.82446538, "ECCENTRICITY": 0.00275566, "INCLINATION": 97.6529, "RA_OF_ASC_NODE": 35.503, "ARG_OF_PERICENTER": 1.2261, "MEAN_ANOMALY": 358.9016, "EPHEMERIS_TYPE": 0, "CLASSIFICATION_TYPE": "U", "NORAD_CAT_ID": 40894, "ELEMENT_SET_NO": 999, "REV_AT_EPOCH": 55408, "BSTAR": 0.00014076901, "MEAN_MOTION_DOT": 1.085e-05, "MEAN_MOTION_DDOT": 0}, "tle": {"line1": "1 40894U 15047A   25356.99081221  .00001085  00000+0  14077-3 0  9990", "line2": "2 40894  97.6529  35.5030 0027556   1.2261 358.9016 14.82446538554087"}}, "geometry": {"type": "Point", "coordinates": [-44.80672462818405, 82.23723352123228]}}, {"type": "Feature", "properties": {"norad_id": 41026, "name": "YAOGAN-28", "group": "resource", "lat": 19.86565228686647, "lon": 132.0597670129691, "alt_km": 489.83093630914846, "timestamp": "2025-12-23T05:02:11.680838+00:00", "meta": {"OBJECT_NAME": "YAOGAN-28", "OBJECT_ID": "2015-064A", "EPOCH": "2025-12-22T22:38:52.192032", "MEAN_MOTION": 15.24507502, "ECCENTRICITY": 0.00126557, "INCLINATION": 97.2817, "RA_OF_ASC_NODE": 134.4491, "ARG_OF_PERICENTER": 93.7014, "MEAN_ANOMALY": 266.5671, "EPHEMERIS_TYPE": 0, "CLASSIFICATION_TYPE": "U", "NORAD_CAT_ID": 41026, "ELEMENT_SET_NO": 999, "REV_AT_EPOCH": 56380, "BSTAR": 0.0003541606, "MEAN_MOTION_DOT": 8.661e-05, "MEAN_MOTION_DDOT": 0}, "tle": {"line1": "1 41026U 15064A   25356.94365963  .00008661  00000+0  35416-3 0  9997", "line2": "2 41026  97.2817 134.4491 0012655  93.7014 266.5671 15.24507502563804"}}, "geometry": {"type": "Point", "coordinates": [132.0597670129691, 19.86565228686647]}}, {"type": "Feature", "properties": {"norad_id": 41038, "name": "YAOGAN-29", "group": "resource", "lat": -6.447253755934962, "lon": 21.32739066029273, "alt_km": 624.5196678908787, "timestamp": "2025-12-23T05:02:11.680848+00:00", "meta": {"OBJECT_NAME": "YAOGAN-29", "OBJECT_ID": "2015-069A", "EPOCH": "2025-12-23T00:12:27.113760", "MEAN_MOTION": 14.82890729, "ECCENTRICITY": 6.909e-05, "INCLINATION": 98.0205, "RA_OF_ASC_NODE": 20.2126, "ARG_OF_PERICENTER": 173.3687, "MEAN_ANOMALY": 186.7536, "EPHEMERIS_TYPE": 0, "CLASSIFICATION_TYPE": "U", "NORAD_CAT_ID": 41038, "ELEMENT_SET_NO": 999, "REV_AT_EPOCH": 54451, "BSTAR": -7.730551e-06, "MEAN_MOTION_DOT": -1.17e-06, "MEAN_MOTION_DDOT": 0}, "tle": {"line1": "1 41038U 15069A   25357.00864715 -.00000117  00000+0 -77306-5 0  9998", "line2": "2 41038  98.0205  20.2126 0000690 173.3687 186.7536 14.82890729544510"}}, "geometry": {"type": "Point", "coordinates": [21.32739066029273, -6.447253755934962]}}, {"type": "Feature", "properties": {"norad_id": 41167, "name": "KENT RIDGE 1", "group": "resource", "lat": 14.720329657323042, "lon": -147.24051277750328, "alt_km": 501.36289773650424, "timestamp": "2025-12-23T05:02:11.680859+00:00", "meta": {"OBJECT_NAME": "KENT RIDGE 1", "OBJECT_ID": "2015-077B", "EPOCH": "2025-12-22T17:40:34.836384", "MEAN_MOTION": 15.21707626, "ECCENTRICITY": 0.00085399, "INCLINATION": 14.9787, "RA_OF_ASC_NODE": 136.9576, "ARG_OF_PERICENTER": 272.009, "MEAN_ANOMALY": 87.9254, "EPHEMERIS_TYPE": 0, "CLASSIFICATION_TYPE": "U", "NORAD_CAT_ID": 41167, "ELEMENT_SET_NO": 999, "REV_AT_EPOCH": 55416, "BSTAR": 0.00015311914, "MEAN_MOTION_DOT": 4.327e-05, "MEAN_MOTION_DDOT": 0}, "tle": {"line1": "1 41167U 15077B   25356.73651431  .00004327  00000+0  15312-3 0  9990", "line2": "2 41167  14.9787 136.9576 0008539 272.0090  87.9254 15.21707626554162"}}, "geometry": {"type": "Point", "coordinates": [-147.24051277750328, 14.720329657323042]}}, {"type": "Feature", "properties": {"norad_id": 41194, "name": "GAOFEN-4", "group": "resource", "lat": -0.06292003482074654, "lon": -86.69983293542947, "alt_km": 35787.93998332753, "timestamp": "2025-12-23T05:02:11.680871+00:00", "meta": {"OBJECT_NAME": "GAOFEN-4", "OBJECT_ID": "2015-083A", "EPOCH": "2025-12-19T15:27:26.627616", "MEAN_MOTION": 1.00273138, "ECCENTRICITY": 0.0002945, "INCLINATION": 0.1878, "RA_OF_ASC_NODE": 81.7841, "ARG_OF_PERICENTER": 93.4275, "MEAN_ANOMALY": 250.8523, "EPHEMERIS_TYPE": 0, "CLASSIFICATION_TYPE": "U", "NORAD_CAT_ID": 41194, "ELEMENT_SET_NO": 999, "REV_AT_EPOCH": 3672, "BSTAR": 0, "MEAN_MOTION_DOT": -3.11e-06, "MEAN_MOTION_DDOT": 0}, "tle": {"line1": "1 41194U 15083A   25353.64405819 -.00000311  00000+0  00000+0 0  9995", "line2": "2 41194   0.1878  81.7841 0002945  93.4275 250.8523  1.00273138 36722"}}, "geometry": {"type": "Point", "coordinates": [-86.69983293542947, -0.06292003482074654]}}, {"type": "Feature", "properties": {"norad_id": 41240, "name": "JASON-3", "group": "resource", "lat": -52.6597603476501, "lon": -8.538963005507913, "alt_km": 1312.2187503729256, "timestamp": "2025-12-23T05:02:11.680883+00:00", "meta": {"OBJECT_NAME": "JASON-3", "OBJECT_ID": "2016-002A", "EPOCH": "2025-12-22T20:20:06.974880", "MEAN_MOTION": 12.8762695, "ECCENTRICITY": 0.00072601, "INCLINATION": 66.0402, "RA_OF_ASC_NODE": 136.574, "ARG_OF_PERICENTER": 271.3992, "MEAN_ANOMALY": 88.6195, "EPHEMERIS_TYPE": 0, "CLASSIFICATION_TYPE": "U", "NORAD_CAT_ID": 41240, "ELEMENT_SET_NO": 999, "REV_AT_EPOCH": 46454, "BSTAR": 5.7561824e-05, "MEAN_MOTION_DOT": -4.8e-07, "MEAN_MOTION_DDOT": 0}, "tle": {"line1": "1 41240U 16002A   25356.84730295 -.00000048  00000+0  57562-4 0  9990", "line2": "2 41240  66.0402 136.5740 0007260 271.3992  88.6195 12.87626950464541"}}, "geometry": {"type": "Point", "coordinates": [-8.538963005507913, -52.6597603476501]}}, {"type": "Feature", "properties": {"norad_id": 41335, "name": "SENTINEL-3A", "group": "resource", "lat": 77.07447750281631, "lon": -76.49119750900265, "alt_km": 794.7556281823518, "timestamp": "2025-12-23T05:02:11.680893+00:00", "meta": {"OBJECT_NAME": "SENTINEL-3A", "OBJECT_ID": "2016-011A", "EPOCH": "2025-12-22T21:50:19.933152", "MEAN_MOTION": 14.2673453, "ECCENTRICITY": 8.908e-05, "INCLINATION": 98.63, "RA_OF_ASC_NODE": 61.7805, "ARG_OF_PERICENTER": 95.2233, "MEAN_ANOMALY": 264.905, "EPHEMERIS_TYPE": 0, "CLASSIFICATION_TYPE": "U", "NORAD_CAT_ID": 41335, "ELEMENT_SET_NO": 999, "REV_AT_EPOCH": 51292, "BSTAR": 7.9537287e-05, "MEAN_MOTION_DOT": 1.49e-06, "MEAN_MOTION_DDOT": 0}, "tle": {"line1": "1 41335U 16011A   25356.90995293  .00000149  00000+0  79537-4 0  9990", "line2": "2 41335  98.6300  61.7805 0000890  95.2233 264.9050 14.26734530512922"}}, "geometry": {"type": "Point", "coordinates": [-76.49119750900265, 77.07447750281631]}}]}